{
  "type": "FeatureCollection",
  "features": [
    {
      "type": "Feature",
      "properties": {
        "norad_id": 25590,
        "name": "COSMOS 2361",
        "group": "musson",
        "lat": -82.20349860462187,
        "lon": -136.46179553678516,
        "alt_km": 974.8942860597872,
        "timestamp": "2025-12-20T03:42:47.662848+00:00",
        "meta_object_name": "COSMOS 2361",
        "meta_object_id": "1998-076A",
        "meta_epoch": "2025-12-19T09:27:54.520128",
        "meta_mean_motion": 13.73218304,
        "meta_eccentricity": 0.0030144,
        "meta_inclination": 82.9341,
        "meta_ra_of_asc_node": 339.1642,
        "meta_arg_of_pericenter": 246.3066,
        "meta_mean_anomaly": 223.5813,
        "meta_ephemeris_type": 0,
        "meta_classification_type": "U",
        "meta_norad_cat_id": 25590,
        "meta_element_set_no": 999,
        "meta_rev_at_epoch": 35202,
        "meta_bstar": 4.6612e-05,
        "meta_mean_motion_dot": 5.8e-07,
        "meta_mean_motion_ddot": 0,
        "tle_line1": "1 25590U 98076A   25353.39438102  .00000058  00000+0  46612-4 0  9994",
        "tle_line2": "2 25590  82.9341 339.1642 0030144 246.3066 223.5813 13.73218304352025"
      },
      "geometry": {
        "type": "Point",
        "coordinates": [
          -136.46179553678516,
          -82.20349860462187
        ]
      }
    },
    {
      "type": "Feature",
      "properties": {
        "norad_id": 26818,
        "name": "COSMOS 2378",
        "group": "musson",
        "lat": 3.699130477310923,
        "lon": -5.313530683897773,
        "alt_km": 1011.3031302538739,
        "timestamp": "2025-12-20T03:42:47.662874+00:00",
        "meta_object_name": "COSMOS 2378",
        "meta_object_id": "2001-023A",
        "meta_epoch": "2025-12-19T10:45:28.864800",
        "meta_mean_motion": 13.74142545,
        "meta_eccentricity": 0.0032813,
        "meta_inclination": 82.927,
        "meta_ra_of_asc_node": 354.7502,
        "meta_arg_of_pericenter": 186.0025,
        "meta_mean_anomaly": 284.9718,
        "meta_ephemeris_type": 0,
        "meta_classification_type": "U",
        "meta_norad_cat_id": 26818,
        "meta_element_set_no": 999,
        "meta_rev_at_epoch": 23015,
        "meta_bstar": 3.5693e-05,
        "meta_mean_motion_dot": 4.9e-07,
        "meta_mean_motion_ddot": 0,
        "tle_line1": "1 26818U 01023A   25353.44825075  .00000049  00000+0  35693-4 0  9996",
        "tle_line2": "2 26818  82.9270 354.7502 0032813 186.0025 284.9718 13.74142545230156"
      },
      "geometry": {
        "type": "Point",
        "coordinates": [
          -5.313530683897773,
          3.699130477310923
        ]
      }
    },
    {
      "type": "Feature",
      "properties": {
        "norad_id": 27436,
        "name": "COSMOS 2389",
        "group": "musson",
        "lat": -56.97687738312395,
        "lon": 132.46952712911158,
        "alt_km": 1021.5171002434627,
        "timestamp": "2025-12-20T03:42:47.662888+00:00",
        "meta_object_name": "COSMOS 2389",
        "meta_object_id": "2002-026A",
        "meta_epoch": "2025-12-19T19:40:02.584704",
        "meta_mean_motion": 13.75155403,
        "meta_eccentricity": 0.0047372,
        "meta_inclination": 82.9508,
        "meta_ra_of_asc_node": 301.7437,
        "meta_arg_of_pericenter": 41.471,
        "meta_mean_anomaly": 337.5676,
        "meta_ephemeris_type": 0,
        "meta_classification_type": "U",
        "meta_norad_cat_id": 27436,
        "meta_element_set_no": 999,
        "meta_rev_at_epoch": 18246,
        "meta_bstar": 3.287e-05,
        "meta_mean_motion_dot": 4.7e-07,
        "meta_mean_motion_ddot": 0,
        "tle_line1": "1 27436U 02026A   25353.81947436  .00000047  00000+0  32870-4 0  9996",
        "tle_line2": "2 27436  82.9508 301.7437 0047372  41.4710 337.5676 13.75155403182463"
      },
      "geometry": {
        "type": "Point",
        "coordinates": [
          132.46952712911158,
          -56.97687738312395
        ]
      }
    },
    {
      "type": "Feature",
      "properties": {
        "norad_id": 27818,
        "name": "COSMOS 2398",
        "group": "musson",
        "lat": 62.347327398872174,
        "lon": 73.57022793363065,
        "alt_km": 963.0274973086371,
        "timestamp": "2025-12-20T03:42:47.662899+00:00",
        "meta_object_name": "COSMOS 2398",
        "meta_object_id": "2003-023A",
        "meta_epoch": "2025-12-19T20:27:55.409760",
        "meta_mean_motion": 13.72386446,
        "meta_eccentricity": 0.0032731,
        "meta_inclination": 82.9484,
        "meta_ra_of_asc_node": 267.4568,
        "meta_arg_of_pericenter": 92.8147,
        "meta_mean_anomaly": 332.5988,
        "meta_ephemeris_type": 0,
        "meta_classification_type": "U",
        "meta_norad_cat_id": 27818,
        "meta_element_set_no": 999,
        "meta_rev_at_epoch": 12914,
        "meta_bstar": 5.2249e-05,
        "meta_mean_motion_dot": 6.3e-07,
        "meta_mean_motion_ddot": 0,
        "tle_line1": "1 27818U 03023A   25353.85272465  .00000063  00000+0  52249-4 0  9995",
        "tle_line2": "2 27818  82.9484 267.4568 0032731  92.8147 332.5988 13.72386446129147"
      },
      "geometry": {
        "type": "Point",
        "coordinates": [
          73.57022793363065,
          62.347327398872174
        ]
      }
    },
    {
      "type": "Feature",
      "properties": {
        "norad_id": 28380,
        "name": "COSMOS 2407",
        "group": "musson",
        "lat": 56.494079416492475,
        "lon": -141.83984795929823,
        "alt_km": 944.3815778807102,
        "timestamp": "2025-12-20T03:42:47.662910+00:00",
        "meta_object_name": "COSMOS 2407",
        "meta_object_id": "2004-028A",
        "meta_epoch": "2025-12-19T20:30:35.407008",
        "meta_mean_motion": 13.76314495,
        "meta_eccentricity": 0.0040011,
        "meta_inclination": 82.9599,
        "meta_ra_of_asc_node": 207.6249,
        "meta_arg_of_pericenter": 35.4572,
        "meta_mean_anomaly": 335.2999,
        "meta_ephemeris_type": 0,
        "meta_classification_type": "U",
        "meta_norad_cat_id": 28380,
        "meta_element_set_no": 999,
        "meta_rev_at_epoch": 7521,
        "meta_bstar": 6.1812e-05,
        "meta_mean_motion_dot": 7.6e-07,
        "meta_mean_motion_ddot": 0,
        "tle_line1": "1 28380U 04028A   25353.85457647  .00000076  00000+0  61812-4 0  9993",
        "tle_line2": "2 28380  82.9599 207.6249 0040011  35.4572 335.2999 13.76314495 75215"
      },
      "geometry": {
        "type": "Point",
        "coordinates": [
          -141.83984795929823,
          56.494079416492475
        ]
      }
    },
    {
      "type": "Feature",
      "properties": {
        "norad_id": 28521,
        "name": "COSMOS 2414",
        "group": "musson",
        "lat": -82.93739624563229,
        "lon": 86.472040225871,
        "alt_km": 969.640868189299,
        "timestamp": "2025-12-20T03:42:47.662921+00:00",
        "meta_object_name": "COSMOS 2414",
        "meta_object_id": "2005-002A",
        "meta_epoch": "2025-12-19T10:50:55.701312",
        "meta_mean_motion": 13.8790381,
        "meta_eccentricity": 0.0041226,
        "meta_inclination": 82.9488,
        "meta_ra_of_asc_node": 179.5841,
        "meta_arg_of_pericenter": 120.9895,
        "meta_mean_anomaly": 239.5328,
        "meta_ephemeris_type": 0,
        "meta_classification_type": "U",
        "meta_norad_cat_id": 28521,
        "meta_element_set_no": 999,
        "meta_rev_at_epoch": 5888,
        "meta_bstar": 4.4826e-05,
        "meta_mean_motion_dot": 7e-07,
        "meta_mean_motion_ddot": 0,
        "tle_line1": "1 28521U 05002A   25353.45203358  .00000070  00000+0  44826-4 0  9997",
        "tle_line2": "2 28521  82.9488 179.5841 0041226 120.9895 239.5328 13.87903810 58884"
      },
      "geometry": {
        "type": "Point",
        "coordinates": [
          86.472040225871,
          -82.93739624563229
        ]
      }
    },
    {
      "type": "Feature",
      "properties": {
        "norad_id": 32052,
        "name": "COSMOS 2429",
        "group": "musson",
        "lat": 62.86369182268002,
        "lon": -8.248248894833187,
        "alt_km": 955.1883857352386,
        "timestamp": "2025-12-20T03:42:47.662931+00:00",
        "meta_object_name": "COSMOS 2429",
        "meta_object_id": "2007-038A",
        "meta_epoch": "2025-12-19T16:55:45.234624",
        "meta_mean_motion": 13.75150092,
        "meta_eccentricity": 0.0038846,
        "meta_inclination": 82.9805,
        "meta_ra_of_asc_node": 338.1734,
        "meta_arg_of_pericenter": 18.7651,
        "meta_mean_anomaly": 341.4927,
        "meta_ephemeris_type": 0,
        "meta_classification_type": "U",
        "meta_norad_cat_id": 32052,
        "meta_element_set_no": 999,
        "meta_rev_at_epoch": 91698,
        "meta_bstar": 3.9694e-05,
        "meta_mean_motion_dot": 5.3e-07,
        "meta_mean_motion_ddot": 0,
        "tle_line1": "1 32052U 07038A   25353.70538466  .00000053  00000+0  39694-4 0  9999",
        "tle_line2": "2 32052  82.9805 338.1734 0038846  18.7651 341.4927 13.75150092916988"
      },
      "geometry": {
        "type": "Point",
        "coordinates": [
          -8.248248894833187,
          62.86369182268002
        ]
      }
    },
    {
      "type": "Feature",
      "properties": {
        "norad_id": 35635,
        "name": "COSMOS 2454",
        "group": "musson",
        "lat": 13.287469372587864,
        "lon": 164.69717212627933,
        "alt_km": 918.605766899519,
        "timestamp": "2025-12-20T03:42:47.662941+00:00",
        "meta_object_name": "COSMOS 2454",
        "meta_object_id": "2009-039A",
        "meta_epoch": "2025-12-19T10:30:20.705760",
        "meta_mean_motion": 13.89929402,
        "meta_eccentricity": 0.0020257,
        "meta_inclination": 82.9554,
        "meta_ra_of_asc_node": 163.5674,
        "meta_arg_of_pericenter": 55.7855,
        "meta_mean_anomaly": 332.3383,
        "meta_ephemeris_type": 0,
        "meta_classification_type": "U",
        "meta_norad_cat_id": 35635,
        "meta_element_set_no": 999,
        "meta_rev_at_epoch": 83243,
        "meta_bstar": 3.1583e-05,
        "meta_mean_motion_dot": 5.5e-07,
        "meta_mean_motion_ddot": 0,
        "tle_line1": "1 35635U 09039A   25353.43773965  .00000055  00000+0  31583-4 0  9998",
        "tle_line2": "2 35635  82.9554 163.5674 0020257  55.7855 332.3383 13.89929402832432"
      },
      "geometry": {
        "type": "Point",
        "coordinates": [
          164.69717212627933,
          13.287469372587864
        ]
      }
    },
    {
      "type": "Feature",
      "properties": {
        "norad_id": 36519,
        "name": "COSMOS 2463",
        "group": "musson",
        "lat": -71.93691156366239,
        "lon": -0.9992764137300431,
        "alt_km": 976.8772496052816,
        "timestamp": "2025-12-20T03:42:47.662952+00:00",
        "meta_object_name": "COSMOS 2463",
        "meta_object_id": "2010-017A",
        "meta_epoch": "2025-12-19T12:50:56.753376",
        "meta_mean_motion": 13.71649731,
        "meta_eccentricity": 0.0034742,
        "meta_inclination": 82.9605,
        "meta_ra_of_asc_node": 21.7186,
        "meta_arg_of_pericenter": 268.4983,
        "meta_mean_anomaly": 201.5375,
        "meta_ephemeris_type": 0,
        "meta_classification_type": "U",
        "meta_norad_cat_id": 36519,
        "meta_element_set_no": 999,
        "meta_rev_at_epoch": 78330,
        "meta_bstar": 5.2986e-05,
        "meta_mean_motion_dot": 6.3e-07,
        "meta_mean_motion_ddot": 0,
        "tle_line1": "1 36519U 10017A   25353.53537909  .00000063  00000+0  52986-4 0  9994",
        "tle_line2": "2 36519  82.9605  21.7186 0034742 268.4983 201.5375 13.71649731783307"
      },
      "geometry": {
        "type": "Point",
        "coordinates": [
          -0.9992764137300431,
          -71.93691156366239
        ]
      }
    }
  ]
}